[
    {
        "Altitude(m)": 607897.6108349855,
        "Argument of Periapsis(deg)": 0.0,
        "Eccentricity": 0.0,
        "Inclination(deg)": 60.0,
        "Latitude(deg)": -14.292913093703474,
        "Longitude(deg)": 51.61877646865117,
        "Mean Anomaly(deg)": -16.363600000000062,
        "RAAN(deg)": 160.0,
        "Satellite Name": "Test1 725",
        "Satellite Number": 725,
        "Semi-Major Axis(m)": 6980739.136638005,
        "Time(s)": 0
    },
    {
        "Altitude(m)": 607750.8121787892,
        "Argument of Periapsis(deg)": 0.00010418945913296404,
        "Eccentricity": 0.0,
        "Inclination(deg)": 60.0,
        "Latitude(deg)": -13.758754068134989,
        "Longitude(deg)": 51.905844538739274,
        "Mean Anomaly(deg)": -15.74349385453821,
        "RAAN(deg)": 159.99957995086024,
        "Satellite Name": "Test1 725",
        "Satellite Number": 725,
        "Semi-Major Axis(m)": 6980739.136638005,
        "Time(s)": 10
    },
    {
        "Altitude(m)": 607606.5378138985,
        "Argument of Periapsis(deg)": 0.0002083789182659281,
        "Eccentricity": 0.0,
        "Inclination(deg)": 60.0,
        "Latitude(deg)": -13.224120298205476,
        "Longitude(deg)": 52.19143621375142,
        "Mean Anomaly(deg)": -15.123387709076383,
        "RAAN(deg)": 159.9991599017205,
        "Satellite Name": "Test1 725",
        "Satellite Number": 725,
        "Semi-Major Axis(m)": 6980739.136638005,
        "Time(s)": 20
    },
    {
        "Altitude(m)": 607464.83211242,
        "Argument of Periapsis(deg)": 0.00031256837739889213,
        "Eccentricity": 0.0,
        "Inclination(deg)": 60.0,
        "Latitude(deg)": -12.689032088336463,
        "Longitude(deg)": 52.47561617293432,
        "Mean Anomaly(deg)": -14.503281563614529,
        "RAAN(deg)": 159.99873985258077,
        "Satellite Name": "Test1 725",
        "Satellite Number": 725,
        "Semi-Major Axis(m)": 6980739.136638005,
        "Time(s)": 30
    },
    {
        "Altitude(m)": 607325.73816936,
        "Argument of Periapsis(deg)": 0.0004167578365318562,
        "Eccentricity": 0.0,
        "Inclination(deg)": 60.0,
        "Latitude(deg)": -12.153509470404586,
        "Longitude(deg)": 52.75844875288358,
        "Mean Anomaly(deg)": -13.883175418152701,
        "RAAN(deg)": 159.99831980344103,
        "Satellite Name": "Test1 725",
        "Satellite Number": 725,
        "Semi-Major Axis(m)": 6980739.136638005,
        "Time(s)": 40
    },
    {
        "Altitude(m)": 607189.2977843214,
        "Argument of Periapsis(deg)": 0.0005209472956648203,
        "Eccentricity": 0.0,
        "Inclination(deg)": 60.0,
        "Latitude(deg)": -11.617572217684026,
        "Longitude(deg)": 53.03999697907751,
        "Mean Anomaly(deg)": -13.263069272690847,
        "RAAN(deg)": 159.99789975430127,
        "Satellite Name": "Test1 725",
        "Satellite Number": 725,
        "Semi-Major Axis(m)": 6980739.136638005,
        "Time(s)": 50
    },
    {
        "Altitude(m)": 607055.5514438134,
        "Argument of Periapsis(deg)": 0.0006251367547977843,
        "Eccentricity": 0.0,
        "Inclination(deg)": 60.0,
        "Latitude(deg)": -11.081239858432108,
        "Longitude(deg)": 53.32032310960772,
        "Mean Anomaly(deg)": -12.642963127229121,
        "RAAN(deg)": 159.99747970516154,
        "Satellite Name": "Test1 725",
        "Satellite Number": 725,
        "Semi-Major Axis(m)": 6980739.136638005,
        "Time(s)": 60
    },
    {
        "Altitude(m)": 606924.5383041778,
        "Argument of Periapsis(deg)": 0.0007293262139307483,
        "Eccentricity": 0.0,
        "Inclination(deg)": 60.0,
        "Latitude(deg)": -10.544531689137601,
        "Longitude(deg)": 53.599489178262296,
        "Mean Anomaly(deg)": -12.02285698176727,
        "RAAN(deg)": 159.9970596560218,
        "Satellite Name": "Test1 725",
        "Satellite Number": 725,
        "Semi-Major Axis(m)": 6980739.136638005,
        "Time(s)": 70
    },
    {
        "Altitude(m)": 606796.2961752242,
        "Argument of Periapsis(deg)": 0.0008335156730637124,
        "Eccentricity": 0.0,
        "Inclination(deg)": 60.0,
        "Latitude(deg)": -10.007466787454037,
        "Longitude(deg)": 53.87755602411723,
        "Mean Anomaly(deg)": -11.402750836305442,
        "RAAN(deg)": 159.99663960688207,
        "Satellite Name": "Test1 725",
        "Satellite Number": 725,
        "Semi-Major Axis(m)": 6980739.136638005,
        "Time(s)": 80
    },
    {
        "Altitude(m)": 606670.8615044246,
        "Argument of Periapsis(deg)": 0.0009377051321966765,
        "Eccentricity": 0.0,
        "Inclination(deg)": 60.0,
        "Latitude(deg)": -9.470064024829735,
        "Longitude(deg)": 54.154583833411046,
        "Mean Anomaly(deg)": -10.782644690843588,
        "RAAN(deg)": 159.9962195577423,
        "Satellite Name": "Test1 725",
        "Satellite Number": 725,
        "Semi-Major Axis(m)": 6980739.136638005,
        "Time(s)": 90
    },
    {
        "Altitude(m)": 606548.2693618719,
        "Argument of Periapsis(deg)": 0.0010418945913296407,
        "Eccentricity": 0.0,
        "Inclination(deg)": 60.0,
        "Latitude(deg)": -8.932342078855841,
        "Longitude(deg)": 54.43063268085961,
        "Mean Anomaly(deg)": -10.16253854538176,
        "RAAN(deg)": 159.99579950860257,
        "Satellite Name": "Test1 725",
        "Satellite Number": 725,
        "Semi-Major Axis(m)": 6980739.136638005,
        "Time(s)": 100
    },
    {
        "Altitude(m)": 606428.5534258292,
        "Argument of Periapsis(deg)": 0.0011460840504626045,
        "Eccentricity": 0.0,
        "Inclination(deg)": 60.0,
        "Latitude(deg)": -8.394319445350169,
        "Longitude(deg)": 54.705761557566035,
        "Mean Anomaly(deg)": -9.542432399919907,
        "RAAN(deg)": 159.99537945946284,
        "Satellite Name": "Test1 725",
        "Satellite Number": 725,
        "Semi-Major Axis(m)": 6980739.136638005,
        "Time(s)": 110
    },
    {
        "Altitude(m)": 606311.7459690304,
        "Argument of Periapsis(deg)": 0.0012502735095955685,
        "Eccentricity": 0.0,
        "Inclination(deg)": 60.0,
        "Latitude(deg)": -7.856014450190429,
        "Longitude(deg)": 54.980028911302284,
        "Mean Anomaly(deg)": -8.92232625445808,
        "RAAN(deg)": 159.9949594103231,
        "Satellite Name": "Test1 725",
        "Satellite Number": 725,
        "Semi-Major Axis(m)": 6980739.136638005,
        "Time(s)": 120
    },
    {
        "Altitude(m)": 606197.8778456008,
        "Argument of Periapsis(deg)": 0.0013544629687285324,
        "Eccentricity": 0.0,
        "Inclination(deg)": 60.0,
        "Latitude(deg)": -7.3174452609143765,
        "Longitude(deg)": 55.2534931863178,
        "Mean Anomaly(deg)": -8.302220108996227,
        "RAAN(deg)": 159.99453936118334,
        "Satellite Name": "Test1 725",
        "Satellite Number": 725,
        "Semi-Major Axis(m)": 6980739.136638005,
        "Time(s)": 130
    },
    {
        "Altitude(m)": 606086.9784787138,
        "Argument of Periapsis(deg)": 0.0014586524278614966,
        "Eccentricity": 0.0,
        "Inclination(deg)": 60.0,
        "Latitude(deg)": -6.778629898105293,
        "Longitude(deg)": 55.52621184983249,
        "Mean Anomaly(deg)": -7.6821139635344,
        "RAAN(deg)": 159.9941193120436,
        "Satellite Name": "Test1 725",
        "Satellite Number": 725,
        "Semi-Major Axis(m)": 6980739.136638005,
        "Time(s)": 140
    },
    {
        "Altitude(m)": 605979.0758489567,
        "Argument of Periapsis(deg)": 0.0015628418869944607,
        "Eccentricity": 0.0,
        "Inclination(deg)": 60.0,
        "Latitude(deg)": -6.2395862465739285,
        "Longitude(deg)": 55.79824193098853,
        "Mean Anomaly(deg)": -7.062007818072546,
        "RAAN(deg)": 159.99369926290385,
        "Satellite Name": "Test1 725",
        "Satellite Number": 725,
        "Semi-Major Axis(m)": 6980739.136638005,
        "Time(s)": 150
    },
    {
        "Altitude(m)": 605874.1964833611,
        "Argument of Periapsis(deg)": 0.0016670313461274247,
        "Eccentricity": 0.0,
        "Inclination(deg)": 60.0,
        "Latitude(deg)": -5.700332066354891,
        "Longitude(deg)": 56.06964055941799,
        "Mean Anomaly(deg)": -6.441901672610719,
        "RAAN(deg)": 159.99327921376414,
        "Satellite Name": "Test1 725",
        "Satellite Number": 725,
        "Semi-Major Axis(m)": 6980739.136638005,
        "Time(s)": 160
    },
    {
        "Altitude(m)": 605772.3654451862,
        "Argument of Periapsis(deg)": 0.0017712208052603888,
        "Eccentricity": 0.0,
        "Inclination(deg)": 60.0,
        "Latitude(deg)": -5.160885003533518,
        "Longitude(deg)": 56.340463990581654,
        "Mean Anomaly(deg)": -5.821795527148968,
        "RAAN(deg)": 159.99285916462438,
        "Satellite Name": "Test1 725",
        "Satellite Number": 725,
        "Semi-Major Axis(m)": 6980739.136638005,
        "Time(s)": 170
    },
    {
        "Altitude(m)": 605673.6063243985,
        "Argument of Periapsis(deg)": 0.001875410264393353,
        "Eccentricity": 0.0,
        "Inclination(deg)": 60.0,
        "Latitude(deg)": -4.621262600914501,
        "Longitude(deg)": 56.610768143655655,
        "Mean Anomaly(deg)": -5.201689381687038,
        "RAAN(deg)": 159.99243911548464,
        "Satellite Name": "Test1 725",
        "Satellite Number": 725,
        "Semi-Major Axis(m)": 6980739.136638005,
        "Time(s)": 180
    },
    {
        "Altitude(m)": 605577.9412288984,
        "Argument of Periapsis(deg)": 0.0019795997235263173,
        "Eccentricity": 0.0,
        "Inclination(deg)": 60.0,
        "Latitude(deg)": -4.081482308549791,
        "Longitude(deg)": 56.88060913912024,
        "Mean Anomaly(deg)": -4.581583236225287,
        "RAAN(deg)": 159.99201906634488,
        "Satellite Name": "Test1 725",
        "Satellite Number": 725,
        "Semi-Major Axis(m)": 6980739.136638005,
        "Time(s)": 190
    }
]